{"type": "FeatureCollection", "features": [ {"type": "Feature", "properties": {"norad_id": 38953, "name": "BEIDOU-2 G6 (C02)", "group": "beidou", "lat": 1.0175595813825027, "lon": 90.25762239260645, "alt_km": 35783.20248566634, "timestamp": "2025-12-03T19:33:07.241199+00:00", "meta": {"OBJECT_NAME": "BEIDOU-2 G6 (C02)", "OBJECT_ID": "2012-059A", "EPOCH": "2025-12-03T09:01:02.952768", "MEAN_MOTION": 1.00270709, "ECCENTRICITY": 0.0007339, "INCLINATION": 3.9235, "RA_OF_ASC_NODE": 75.5944, "ARG_OF_PERICENTER": 290.1106, "MEAN_ANOMALY": 286.0731, "EPHEMERIS_TYPE": 0, "CLASSIFICATION_TYPE": "U", "NORAD_CAT_ID": 38953, "ELEMENT_SET_NO": 999, "REV_AT_EPOCH": 4794, "BSTAR": 0, "MEAN_MOTION_DOT": -1.59e-06, "MEAN_MOTION_DDOT": 0}, "tle": {"line1": "1 38953U 12059A   25337.37572862 -.00000159  00000+0  00000+0 0  9999", "line2": "2 38953   3.9235  75.5944 0007339 290.1106 286.0731  1.00270709 47944"}}, "geometry": {"type": "Point", "coordinates": [90.25762239260645, 1.0175595813825027]}}, {"type": "Feature", "properties": {"norad_id": 40748, "name": "BEIDOU-3S M2S (C58)", "group": "beidou", "lat": -31.140992045220454, "lon": -76.24034386487683, "alt_km": 21511.50688693178, "timestamp": "2025-12-03T19:33:07.241210+00:00", "meta": {"OBJECT_NAME": "BEIDOU-3S M2S (C58)", "OBJECT_ID": "2015-037A", "EPOCH": "2025-12-01T04:31:01.292160", "MEAN_MOTION": 1.86229002, "ECCENTRICITY": 0.0012493, "INCLINATION": 55.0491, "RA_OF_ASC_NODE": 308.8604, "ARG_OF_PERICENTER": 267.0141, "MEAN_ANOMALY": 92.8367, "EPHEMERIS_TYPE": 0, "CLASSIFICATION_TYPE": "U", "NORAD_CAT_ID": 40748, "ELEMENT_SET_NO": 999, "REV_AT_EPOCH": 7043, "BSTAR": 0, "MEAN_MOTION_DOT": -5.6e-07, "MEAN_MOTION_DDOT": 0}, "tle": {"line1": "1 40748U 15037A   25335.18820940 -.00000056  00000+0  00000+0 0  9999", "line2": "2 40748  55.0491 308.8604 0012493 267.0141  92.8367  1.86229002 70437"}}, "geometry": {"type": "Point", "coordinates": [-76.24034386487683, -31.140992045220454]}}, {"type": "Feature", "properties": {"norad_id": 40749, "name": "BEIDOU-3S M1S (C57)", "group": "beidou", "lat": 11.576074906981358, "lon": 120.5039522039068, "alt_km": 21533.63165172382, "timestamp": "2025-12-03T19:33:07.241222+00:00", "meta": {"OBJECT_NAME": "BEIDOU-3S M1S (C57)", "OBJECT_ID": "2015-037B", "EPOCH": "2025-12-01T22:57:46.412352", "MEAN_MOTION": 1.86253762, "ECCENTRICITY": 0.0003321, "INCLINATION": 55.0451, "RA_OF_ASC_NODE": 308.8236, "ARG_OF_PERICENTER": 355.9906, "MEAN_ANOMALY": 3.9975, "EPHEMERIS_TYPE": 0, "CLASSIFICATION_TYPE": "U", "NORAD_CAT_ID": 40749, "ELEMENT_SET_NO": 999, "REV_AT_EPOCH": 7045, "BSTAR": 0, "MEAN_MOTION_DOT": -6e-07, "MEAN_MOTION_DDOT": 0}, "tle": {"line1": "1 40749U 15037B   25335.95678718 -.00000060  00000+0  00000+0 0  9994", "line2": "2 40749  55.0451 308.8236 0003321 355.9906   3.9975  1.86253762 70451"}}, "geometry": {"type": "Point", "coordinates": [120.5039522039068, 11.576074906981358]}}, {"type": "Feature", "properties": {"norad_id": 40938, "name": "BEIDOU-3S IGSO-2S (C56)", "group": "beidou", "lat": -16.086936538192006, "lon": 95.30204301036228, "alt_km": 35537.09613475614, "timestamp": "2025-12-03T19:33:07.241233+00:00", "meta": {"OBJECT_NAME": "BEIDOU-3S IGSO-2S (C56)", "OBJECT_ID": "2015-053A", "EPOCH": "2025-12-02T18:11:44.349216", "MEAN_MOTION": 1.00271748, "ECCENTRICITY": 0.0061099, "INCLINATION": 49.5284, "RA_OF_ASC_NODE": 261.1253, "ARG_OF_PERICENTER": 188.6619, "MEAN_ANOMALY": 351.1283, "EPHEMERIS_TYPE": 0, "CLASSIFICATION_TYPE": "U", "NORAD_CAT_ID": 40938, "ELEMENT_SET_NO": 999, "REV_AT_EPOCH": 3738, "BSTAR": 0, "MEAN_MOTION_DOT": -1.58e-06, "MEAN_MOTION_DDOT": 0}, "tle": {"line1": "1 40938U 15053A   25336.75815219 -.00000158  00000+0  00000+0 0  9998", "line2": "2 40938  49.5284 261.1253 0061099 188.6619 351.1283  1.00271748 37386"}}, "geometry": {"type": "Point", "coordinates": [95.30204301036228, -16.086936538192006]}}, {"type": "Feature", "properties": {"norad_id": 41434, "name": "BEIDOU-2 IGSO-6 (C13)", "group": "beidou", "lat": 47.17350554494351, "lon": 78.58528202852591, "alt_km": 36034.077722776135, "timestamp": "2025-12-03T19:33:07.241245+00:00", "meta": {"OBJECT_NAME": "BEIDOU-2 IGSO-6 (C13)", "OBJECT_ID": "2016-021A", "EPOCH": "2025-12-01T15:57:35.287200", "MEAN_MOTION": 1.00256562, "ECCENTRICITY": 0.00591323, "INCLINATION": 59.9483, "RA_OF_ASC_NODE": 40.0119, "ARG_OF_PERICENTER": 231.2834, "MEAN_ANOMALY": 130.8807, "EPHEMERIS_TYPE": 0, "CLASSIFICATION_TYPE": "U", "NORAD_CAT_ID": 41434, "ELEMENT_SET_NO": 999, "REV_AT_EPOCH": 3550, "BSTAR": 0, "MEAN_MOTION_DOT": -1.55e-06, "MEAN_MOTION_DDOT": 0}, "tle": {"line1": "1 41434U 16021A   25335.66499175 -.00000155  00000+0  00000+0 0  9991", "line2": "2 41434  59.9483  40.0119 0059132 231.2834 130.8807  1.00256562 35501"}}, "geometry": {"type": "Point", "coordinates": [78.58528202852591, 47.17350554494351]}}, {"type": "Feature", "properties": {"norad_id": 41586, "name": "BEIDOU-2 G7 (C03)", "group": "beidou", "lat": 1.3193099565417654, "lon": 116.66586925360656, "alt_km": 35772.70301171715, "timestamp": "2025-12-03T19:33:07.241264+00:00", "meta": {"OBJECT_NAME": "BEIDOU-2 G7 (C03)", "OBJECT_ID": "2016-037A", "EPOCH": "2025-12-03T10:51:22.384224", "MEAN_MOTION": 1.002716, "ECCENTRICITY": 0.0004402, "INCLINATION": 1.7326, "RA_OF_ASC_NODE": 67.6893, "ARG_OF_PERICENTER": 4.5231, "MEAN_ANOMALY": 273.6588, "EPHEMERIS_TYPE": 0, "CLASSIFICATION_TYPE": "U", "NORAD_CAT_ID": 41586, "ELEMENT_SET_NO": 999, "REV_AT_EPOCH": 492, "BSTAR": 0, "MEAN_MOTION_DOT": -3.36e-06, "MEAN_MOTION_DDOT": 0}, "tle": {"line1": "1 41586U 16037A   25337.45234241 -.00000336  00000+0  00000+0 0  9997", "line2": "2 41586   1.7326  67.6893 0004402   4.5231 273.6588  1.00271600  4920"}}, "geometry": {"type": "Point", "coordinates": [116.66586925360656, 1.3193099565417654]}}, {"type": "Feature", "properties": {"norad_id": 43001, "name": "BEIDOU-3 M1 (C19)", "group": "beidou", "lat": 56.53797321768258, "lon": 158.43537998923685, "alt_km": 21541.921043198687, "timestamp": "2025-12-03T19:33:07.241290+00:00", "meta": {"OBJECT_NAME": "BEIDOU-3 M1 (C19)", "OBJECT_ID": "2017-069A", "EPOCH": "2025-12-03T03:27:53.485056", "MEAN_MOTION": 1.86230745, "ECCENTRICITY": 0.00088373, "INCLINATION": 56.5186, "RA_OF_ASC_NODE": 69.5514, "ARG_OF_PERICENTER": 303.7187, "MEAN_ANOMALY": 56.1997, "EPHEMERIS_TYPE": 0, "CLASSIFICATION_TYPE": "U", "NORAD_CAT_ID": 43001, "ELEMENT_SET_NO": 999, "REV_AT_EPOCH": 5495, "BSTAR": 0, "MEAN_MOTION_DOT": -4.9e-07, "MEAN_MOTION_DDOT": 0}, "tle": {"line1": "1 43001U 17069A   25337.14436904 -.00000049  00000+0  00000+0 0  9994", "line2": "2 43001  56.5186  69.5514 0008837 303.7187  56.1997  1.86230745 54952"}}, "geometry": {"type": "Point", "coordinates": [158.43537998923685, 56.53797321768258]}}, {"type": "Feature", "properties": {"norad_id": 43002, "name": "BEIDOU-3 M2 (C20)", "group": "beidou", "lat": 39.18952299513924, "lon": -143.0322831199335, "alt_km": 21539.347052699784, "timestamp": "2025-12-03T19:33:07.241310+00:00", "meta": {"OBJECT_NAME": "BEIDOU-3 M2 (C20)", "OBJECT_ID": "2017-069B", "EPOCH": "2025-12-01T11:19:28.056000", "MEAN_MOTION": 1.86230616, "ECCENTRICITY": 0.00061649, "INCLINATION": 56.5166, "RA_OF_ASC_NODE": 69.6425, "ARG_OF_PERICENTER": 332.397, "MEAN_ANOMALY": 27.5733, "EPHEMERIS_TYPE": 0, "CLASSIFICATION_TYPE": "U", "NORAD_CAT_ID": 43002, "ELEMENT_SET_NO": 999, "REV_AT_EPOCH": 5491, "BSTAR": 0, "MEAN_MOTION_DOT": -4.1e-07, "MEAN_MOTION_DDOT": 0}, "tle": {"line1": "1 43002U 17069B   25335.47185250 -.00000041  00000+0  00000+0 0  9996", "line2": "2 43002  56.5166  69.6425 0006164 332.3970  27.5733  1.86230616 54915"}}, "geometry": {"type": "Point", "coordinates": [-143.0322831199335, 39.18952299513924]}}, {"type": "Feature", "properties": {"norad_id": 43107, "name": "BEIDOU-3 M7 (C27)", "group": "beidou", "lat": -43.09368730251073, "lon": -92.76269834403033, "alt_km": 21537.390050242993, "timestamp": "2025-12-03T19:33:07.241322+00:00", "meta": {"OBJECT_NAME": "BEIDOU-3 M7 (C27)", "OBJECT_ID": "2018-003A", "EPOCH": "2025-12-02T06:56:05.635968", "MEAN_MOTION": 1.86232265, "ECCENTRICITY": 0.0002591, "INCLINATION": 54.5061, "RA_OF_ASC_NODE": 309.1785, "ARG_OF_PERICENTER": 70.8685, "MEAN_ANOMALY": 289.1495, "EPHEMERIS_TYPE": 0, "CLASSIFICATION_TYPE": "U", "NORAD_CAT_ID": 43107, "ELEMENT_SET_NO": 999, "REV_AT_EPOCH": 5368, "BSTAR": 0, "MEAN_MOTION_DOT": -6.3e-07, "MEAN_MOTION_DDOT": 0}, "tle": {"line1": "1 43107U 18003A   25336.28895412 -.00000063  00000+0  00000+0 0  9993", "line2": "2 43107  54.5061 309.1785 0002591  70.8685 289.1495  1.86232265 53687"}}, "geometry": {"type": "Point", "coordinates": [-92.76269834403033, -43.09368730251073]}}, {"type": "Feature", "properties": {"norad_id": 43108, "name": "BEIDOU-3 M8 (C28)", "group": "beidou", "lat": -16.235210327097356, "lon": -62.904983260926464, "alt_km": 21524.877723969326, "timestamp": "2025-12-03T19:33:07.241334+00:00", "meta": {"OBJECT_NAME": "BEIDOU-3 M8 (C28)", "OBJECT_ID": "2018-003B", "EPOCH": "2025-12-03T07:23:02.934240", "MEAN_MOTION": 1.8623075, "ECCENTRICITY": 0.0004799, "INCLINATION": 54.498, "RA_OF_ASC_NODE": 309.1259, "ARG_OF_PERICENTER": 273.9928, "MEAN_ANOMALY": 85.9385, "EPHEMERIS_TYPE": 0, "CLASSIFICATION_TYPE": "U", "NORAD_CAT_ID": 43108, "ELEMENT_SET_NO": 999, "REV_AT_EPOCH": 5371, "BSTAR": 0, "MEAN_MOTION_DOT": -6.7e-07, "MEAN_MOTION_DDOT": 0}, "tle": {"line1": "1 43108U 18003B   25337.30767285 -.00000067  00000+0  00000+0 0  9998", "line2": "2 43108  54.4980 309.1259 0004799 273.9928  85.9385  1.86230750 53712"}}, "geometry": {"type": "Point", "coordinates": [-62.904983260926464, -16.235210327097356]}}]}